SL-3 R/B                
1 13403U 82079B   26039.13193541  .00006752  00000+0  27251-3 0  9993
2 13403  81.1443 227.9685 0024124 266.4274  93.4200 15.24365824373198
SL-14 R/B               
1 13553U 82092B   26038.83640527  .00000774  00000+0  84099-4 0  9993
2 13553  82.5702 169.3133 0021369  43.5235  70.5753 14.86633146324493
SL-3 R/B                
1 13819U 83010B   26039.04880705  .00015611  00000+0  32494-3 0  9994
2 13819  81.1026  38.5589 0017918 145.2695 214.9723 15.45304001353369
SL-3 R/B                
1 14208U 83075B   26039.14963464  .00013672  00000+0  36926-3 0  9992
2 14208  97.6136  42.6310 0021177 340.9374  19.1075 15.37653095325617
COSMOS 1536             
1 14699U 84013A   26038.77195252  .00007938  00000+0  33105-3 0  9993
2 14699  82.5469 137.5737 0014987  32.8756 327.3410 15.23427809268061
SL-14 R/B               
1 14820U 84027B   26039.13172085  .00000519  00000+0  56431-4 0  9990
2 14820  82.5399 272.7406 0019466  72.7664 287.5681 14.85947387243247
SL-8 R/B                
1 15483U 85006B   26039.09454457  .00000297  00000+0  10728-3 0  9996
2 15483  74.0472 315.6055 0019527 239.1309 223.6799 14.37768396149773
SL-12 R/B(2)            
1 15772U 85042D   26038.73594273  .00000182  00000+0  10319-3 0  9997
2 15772  71.1087 151.0113 0034987 176.0840 291.8229 14.21973808110139
SL-14 R/B               
1 15945U 85069B   26039.12544637  .00000610  00000+0  66257-4 0  9990
2 15945  82.5240  52.7392 0017298 292.3875  67.5509 14.86398003168445
SL-16 R/B               
1 16182U 85097B   26038.91578264 -.00000048  00000+0 -68941-7 0  9996
2 16182  71.0016 203.2320 0009584 294.5187 178.7757 14.16596400 83019
SL-14 R/B               
1 16496U 86006B   26039.17757699  .00000871  00000+0  89866-4 0  9993
2 16496  82.5268 287.5152 0076973  11.6997 348.5985 14.86774656144829
COSMOS 1743             
1 16719U 86034A   26038.63673131  .00037421  00000+0  52843-3 0  9995
2 16719  82.5329 105.3161 0005128  55.3863 304.7874 15.56379282175574
